[{"OBJECT_NAME":"STARLINK-3568","OBJECT_ID":"2022-022E","EPOCH":"2026-03-09T06:00:11.224224","MEAN_MOTION":15.08849092,"ECCENTRICITY":0.00011341,"INCLINATION":53.2194,"RA_OF_ASC_NODE":21.103,"ARG_OF_PERICENTER":91.177,"MEAN_ANOMALY":268.9352,"EPHEMERIS_TYPE":0,"CLASSIFICATION_TYPE":"U","NORAD_CAT_ID":51856,"ELEMENT_SET_NO":999,"REV_AT_EPOCH":22298,"BSTAR":1.0592192e-5,"MEAN_MOTION_DOT":-1.19e-6,"MEAN_MOTION_DDOT":0},{"OBJECT_NAME":"D-SAT","OBJECT_ID":"2017-036AF","EPOCH":"2026-03-09T22:00:14.910336","MEAN_MOTION":15.15529522,"ECCENTRICITY":0.00852401,"INCLINATION":97.5487,"RA_OF_ASC_NODE":48.252,"ARG_OF_PERICENTER":144.4633,"MEAN_ANOMALY":216.2319,"EPHEMERIS_TYPE":0,"CLASSIFICATION_TYPE":"U","NORAD_CAT_ID":42794,"ELEMENT_SET_NO":999,"REV_AT_EPOCH":47581,"BSTAR":0.00038655305,"MEAN_MOTION_DOT":7.964e-5,"MEAN_MOTION_DDOT":0}]
